$$SOE
2459580.500000000, A.D. 2022-Jan-01 00:00:00.0000, 6.009179990755549E+09, 2.355076973855137E+09, 7.489279552012432E+07,
2459587.500000000, A.D. 2022-Jan-08 00:00:00.0000, 6.007994971185698E+09, 2.357532267830323E+09, 7.538482548355222E+07,
2459594.500000000, A.D. 2022-Jan-15 00:00:00.0000, 6.006808784944641E+09, 2.359987150825682E+09, 7.587684333831561E+07,
2459601.500000000, A.D. 2022-Jan-22 00:00:00.0000, 6.005621436058373E+09, 2.362441620860632E+09, 7.636884861785018E+07,
2459608.500000000, A.D. 2022-Jan-29 00:00:00.0000, 6.004432929132167E+09, 2.364895678430960E+09, 7.686084096270680E+07,
2459615.500000000, A.D. 2022-Feb-05 00:00:00.0000, 6.003243267143482E+09, 2.367349325837154E+09, 7.735282026831770E+07,
2459622.500000000, A.D. 2022-Feb-12 00:00:00.0000, 6.002052451408226E+09, 2.369802565444492E+09, 7.784478654771352E+07,
2459629.500000000, A.D. 2022-Feb-19 00:00:00.0000, 6.000860482395539E+09, 2.372255399243872E+09, 7.833673982420063E+07,
2459636.500000000, A.D. 2022-Feb-26 00:00:00.0000, 5.999667360079754E+09, 2.374707828990412E+09, 7.882868011500347E+07,
2459643.500000000, A.D. 2022-Mar-05 00:00:00.0000, 5.998473083988817E+09, 2.377159856302933E+09, 7.932060744060874E+07,
2459650.500000000, A.D. 2022-Mar-12 00:00:00.0000, 5.997277653170968E+09, 2.379611482658682E+09, 7.981252183380139E+07,
2459657.500000000, A.D. 2022-Mar-19 00:00:00.0000, 5.996081066150758E+09, 2.382062709311503E+09, 8.030442334386778E+07,
2459664.500000000, A.D. 2022-Mar-26 00:00:00.0000, 5.994883320896780E+09, 2.384513537127678E+09, 8.079631203313231E+07,
2459671.500000000, A.D. 2022-Apr-02 00:00:00.0000, 5.993684414868960E+09, 2.386963966283845E+09, 8.128818795478451E+07,
2459678.500000000, A.D. 2022-Apr-09 00:00:00.0000, 5.992484345417408E+09, 2.389413995832026E+09, 8.178005108720970E+07,
2459685.500000000, A.D. 2022-Apr-16 00:00:00.0000, 5.991283110890005E+09, 2.391863623786076E+09, 8.227190124533677E+07,
2459692.500000000, A.D. 2022-Apr-23 00:00:00.0000, 5.990080711179828E+09, 2.394312848814019E+09, 8.276373817385733E+07,
2459699.500000000, A.D. 2022-Apr-30 00:00:00.0000, 5.988877145842288E+09, 2.396761671291132E+09, 8.325556181029117E+07,
2459706.500000000, A.D. 2022-May-07 00:00:00.0000, 5.987672412844672E+09, 2.399210091740368E+09, 8.374737227561951E+07,
2459713.500000000, A.D. 2022-May-14 00:00:00.0000, 5.986466509337493E+09, 2.401658109698370E+09, 8.423916971329188E+07,
2459720.500000000, A.D. 2022-May-21 00:00:00.0000, 5.985259432416598E+09, 2.404105723765892E+09, 8.473095422490633E+07,
2459727.500000000, A.D. 2022-May-28 00:00:00.0000, 5.984051179397172E+09, 2.406552931883916E+09, 8.522272586813760E+07,
2459734.500000000, A.D. 2022-Jun-04 00:00:00.0000, 5.982841747876823E+09, 2.408999731522747E+09, 8.571448466596305E+07,
2459741.500000000, A.D. 2022-Jun-11 00:00:00.0000, 5.981631135732409E+09, 2.411446119786409E+09, 8.620623061413038E+07,
2459748.500000000, A.D. 2022-Jun-18 00:00:00.0000, 5.980419341089368E+09, 2.413892093445838E+09, 8.669796368446672E+07,
2459755.500000000, A.D. 2022-Jun-25 00:00:00.0000, 5.979206362292994E+09, 2.416337648867918E+09, 8.718968381869853E+07,
2459762.500000000, A.D. 2022-Jul-02 00:00:00.0000, 5.977992198015757E+09, 2.418782781774877E+09, 8.768139089521694E+07,
2459769.500000000, A.D. 2022-Jul-09 00:00:00.0000, 5.976776847890976E+09, 2.421227487011247E+09, 8.817308464757848E+07,
2459776.500000000, A.D. 2022-Jul-16 00:00:00.0000, 5.975560313617676E+09, 2.423671759401359E+09, 8.866476462844801E+07,
2459783.500000000, A.D. 2022-Jul-23 00:00:00.0000, 5.974342598338269E+09, 2.426115595775172E+09, 8.915643042716396E+07,
2459790.500000000, A.D. 2022-Jul-30 00:00:00.0000, 5.973123704373123E+09, 2.428558994808586E+09, 8.964808185934353E+07,
2459797.500000000, A.D. 2022-Aug-06 00:00:00.0000, 5.971903632910810E+09, 2.431001955326341E+09, 9.013971885162473E+07,
2459804.500000000, A.D. 2022-Aug-13 00:00:00.0000, 5.970682384830818E+09, 2.433444475821994E+09, 9.063134132238710E+07,
2459811.500000000, A.D. 2022-Aug-20 00:00:00.0000, 5.969459961089397E+09, 2.435886554691559E+09, 9.112294916151595E+07,
2459818.500000000, A.D. 2022-Aug-27 00:00:00.0000, 5.968236362736674E+09, 2.438328190454238E+09, 9.161454224380267E+07,
2459825.500000000, A.D. 2022-Sep-03 00:00:00.0000, 5.967011590812964E+09, 2.440769381849712E+09, 9.210612044440353E+07,
2459832.500000000, A.D. 2022-Sep-10 00:00:00.0000, 5.965785646214366E+09, 2.443210127835902E+09, 9.259768365015876E+07,
2459839.500000000, A.D. 2022-Sep-17 00:00:00.0000, 5.964558529557081E+09, 2.445650427485462E+09, 9.308923176399827E+07,
2459846.500000000, A.D. 2022-Sep-24 00:00:00.0000, 5.963330241100853E+09, 2.448090279730132E+09, 9.358076469269586E+07,
2459853.500000000, A.D. 2022-Oct-01 00:00:00.0000, 5.962100780971541E+09, 2.450529682930640E+09, 9.407228229403090E+07,
2459860.500000000, A.D. 2022-Oct-08 00:00:00.0000, 5.960870150090117E+09, 2.452968634794251E+09, 9.456378428847611E+07,
2459867.500000000, A.D. 2022-Oct-15 00:00:00.0000, 5.959638350876245E+09, 2.455407133839120E+09, 9.505527031864882E+07,
2459874.500000000, A.D. 2022-Oct-22 00:00:00.0000, 5.958405385544860E+09, 2.457845180721581E+09, 9.554674021875417E+07,
2459881.500000000, A.D. 2022-Oct-29 00:00:00.0000, 5.957171254493569E+09, 2.460282776832870E+09, 9.603819405267918E+07,
2459888.500000000, A.D. 2022-Nov-05 00:00:00.0000, 5.955935956880185E+09, 2.462719922906431E+09, 9.652963195191813E+07,
2459895.500000000, A.D. 2022-Nov-12 00:00:00.0000, 5.954699491425556E+09, 2.465156618903037E+09, 9.702105403686166E+07,
2459902.500000000, A.D. 2022-Nov-19 00:00:00.0000, 5.953461856722335E+09, 2.467592864219599E+09, 9.751246040928161E+07,
2459909.500000000, A.D. 2022-Nov-26 00:00:00.0000, 5.952223051311901E+09, 2.470028657824343E+09, 9.800385115932953E+07,
2459916.500000000, A.D. 2022-Dec-03 00:00:00.0000, 5.950983073695449E+09, 2.472463998306832E+09, 9.849522637078321E+07,
2459923.500000000, A.D. 2022-Dec-10 00:00:00.0000, 5.949741922324810E+09, 2.474898883861498E+09, 9.898658612184620E+07,
2459930.500000000, A.D. 2022-Dec-17 00:00:00.0000, 5.948499595597673E+09, 2.477333312179723E+09, 9.947793047717774E+07,
2459937.500000000, A.D. 2022-Dec-24 00:00:00.0000, 5.947256091966638E+09, 2.479767280184623E+09, 9.996925945575356E+07,
2459944.500000000, A.D. 2022-Dec-31 00:00:00.0000, 5.946011410519708E+09, 2.482200783716028E+09, 1.004605729505905E+08,
2459951.500000000, A.D. 2023-Jan-07 00:00:00.0000, 5.944765552154965E+09, 2.484633818128087E+09, 1.009518706677761E+08,
2459958.500000000, A.D. 2023-Jan-14 00:00:00.0000, 5.943518519382362E+09, 2.487066380296269E+09, 1.014431523058929E+08,
2459965.500000000, A.D. 2023-Jan-21 00:00:00.0000, 5.942270314107945E+09, 2.489498468861155E+09, 1.019344177757816E+08,
2459972.500000000, A.D. 2023-Jan-28 00:00:00.0000, 5.941020937068455E+09, 2.491930082513500E+09, 1.024256671082968E+08,
2459979.500000000, A.D. 2023-Feb-04 00:00:00.0000, 5.939770388707786E+09, 2.494361219348339E+09, 1.029169003166903E+08,
2459986.500000000, A.D. 2023-Feb-11 00:00:00.0000, 5.938518669700082E+09, 2.496791877094581E+09, 1.034081173625721E+08,
2459993.500000000, A.D. 2023-Feb-18 00:00:00.0000, 5.937265781056281E+09, 2.499222053397054E+09, 1.038993181640910E+08,
2460000.500000000, A.D. 2023-Feb-25 00:00:00.0000, 5.936011724077027E+09, 2.501651745989403E+09, 1.043905026091518E+08,
2460007.500000000, A.D. 2023-Mar-04 00:00:00.0000, 5.934756500254287E+09, 2.504080952776843E+09, 1.048816705659862E+08,
2460014.500000000, A.D. 2023-Mar-11 00:00:00.0000, 5.933500111150486E+09, 2.506509671829549E+09, 1.053728218886802E+08,
2460021.500000000, A.D. 2023-Mar-18 00:00:00.0000, 5.932242558302431E+09, 2.508937901237416E+09, 1.058639564095076E+08,
2460028.500000000, A.D. 2023-Mar-25 00:00:00.0000, 5.930983843353518E+09, 2.511365638779249E+09, 1.063550738957790E+08,
2460035.500000000, A.D. 2023-Apr-01 00:00:00.0000, 5.929723968838941E+09, 2.513792881799999E+09, 1.068461739646338E+08,
2460042.500000000, A.D. 2023-Apr-08 00:00:00.0000, 5.928462939008662E+09, 2.516219628521220E+09, 1.073372561125394E+08,
2460049.500000000, A.D. 2023-Apr-15 00:00:00.0000, 5.927200758351249E+09, 2.518645879678752E+09, 1.078283199836253E+08,
2460056.500000000, A.D. 2023-Apr-22 00:00:00.0000, 5.925937429627862E+09, 2.521071637435798E+09, 1.083193654616138E+08,
2460063.500000000, A.D. 2023-Apr-29 00:00:00.0000, 5.924672954151502E+09, 2.523496903824334E+09, 1.088103925186303E+08,
2460070.500000000, A.D. 2023-May-06 00:00:00.0000, 5.923407332551329E+09, 2.525921680496119E+09, 1.093014011278778E+08,
2460077.500000000, A.D. 2023-May-13 00:00:00.0000, 5.922140565045315E+09, 2.528345968889841E+09, 1.097923912566345E+08,
2460084.500000000, A.D. 2023-May-20 00:00:00.0000, 5.920872651455398E+09, 2.530769770323411E+09, 1.102833628778040E+08,
2460091.500000000, A.D. 2023-May-27 00:00:00.0000, 5.919603591158659E+09, 2.533193085982065E+09, 1.107743159796216E+08,
2460098.500000000, A.D. 2023-Jun-03 00:00:00.0000, 5.918333383032091E+09, 2.535615916828307E+09, 1.112652505700932E+08,
2460105.500000000, A.D. 2023-Jun-10 00:00:00.0000, 5.917062025414784E+09, 2.538038263420005E+09, 1.117561666725825E+08,
2460112.500000000, A.D. 2023-Jun-17 00:00:00.0000, 5.915789516176522E+09, 2.540460125576613E+09, 1.122470642991830E+08,
2460119.500000000, A.D. 2023-Jun-24 00:00:00.0000, 5.914515853212828E+09, 2.542881501949149E+09, 1.127379433768239E+08,
2460126.500000000, A.D. 2023-Jul-01 00:00:00.0000, 5.913241035619555E+09, 2.545302390322128E+09, 1.132288036703479E+08,
2460133.500000000, A.D. 2023-Jul-08 00:00:00.0000, 5.911965063873074E+09, 2.547722789469537E+09, 1.137196449231074E+08,
2460140.500000000, A.D. 2023-Jul-15 00:00:00.0000, 5.910687937739284E+09, 2.550142699735107E+09, 1.142104671008196E+08,
2460147.500000000, A.D. 2023-Jul-22 00:00:00.0000, 5.909409655432822E+09, 2.552562121302552E+09, 1.147012703310504E+08,
2460154.500000000, A.D. 2023-Jul-29 00:00:00.0000, 5.908130214513442E+09, 2.554981053300762E+09, 1.151920547506365E+08,
$$EOE